[{"OBJECT_NAME":"TECMS","OBJECT_ID":"2022-090A","EPOCH":"2026-04-26T12:40:17.592096","MEAN_MOTION":15.21317953,"ECCENTRICITY":0.0003394,"INCLINATION":97.3165,"RA_OF_ASC_NODE":186.091,"ARG_OF_PERICENTER":38.162,"MEAN_ANOMALY":321.9855,"EPHEMERIS_TYPE":0,"CLASSIFICATION_TYPE":"U","NORAD_CAT_ID":53346,"ELEMENT_SET_NO":999,"REV_AT_EPOCH":20695,"BSTAR":0.00020768,"MEAN_MOTION_DOT":4.581e-5,"MEAN_MOTION_DDOT":0},{"OBJECT_NAME":"DONGPO 04","OBJECT_ID":"2022-098H","EPOCH":"2026-04-26T08:25:42.028896","MEAN_MOTION":16.27933227,"ECCENTRICITY":0.0011188,"INCLINATION":97.5543,"RA_OF_ASC_NODE":253.6943,"ARG_OF_PERICENTER":267.2027,"MEAN_ANOMALY":92.7985,"EPHEMERIS_TYPE":0,"CLASSIFICATION_TYPE":"U","NORAD_CAT_ID":53451,"ELEMENT_SET_NO":999,"REV_AT_EPOCH":20717,"BSTAR":0.0008864,"MEAN_MOTION_DOT":0.03242589,"MEAN_MOTION_DDOT":2.5733e-6},{"OBJECT_NAME":"DONGPO 02","OBJECT_ID":"2022-098J","EPOCH":"2026-04-26T13:12:54.408672","MEAN_MOTION":15.66036134,"ECCENTRICITY":0.0003754,"INCLINATION":97.5441,"RA_OF_ASC_NODE":243.6698,"ARG_OF_PERICENTER":161.4948,"MEAN_ANOMALY":198.6449,"EPHEMERIS_TYPE":0,"CLASSIFICATION_TYPE":"U","NORAD_CAT_ID":53452,"ELEMENT_SET_NO":999,"REV_AT_EPOCH":20669,"BSTAR":0.00083914,"MEAN_MOTION_DOT":0.00086381,"MEAN_MOTION_DDOT":0},{"OBJECT_NAME":"DONGPO 01","OBJECT_ID":"2022-098K","EPOCH":"2026-04-26T13:09:23.901120","MEAN_MOTION":15.64651975,"ECCENTRICITY":0.0001644,"INCLINATION":97.5507,"RA_OF_ASC_NODE":244.2896,"ARG_OF_PERICENTER":152.7123,"MEAN_ANOMALY":207.4223,"EPHEMERIS_TYPE":0,"CLASSIFICATION_TYPE":"U","NORAD_CAT_ID":53453,"ELEMENT_SET_NO":999,"REV_AT_EPOCH":20666,"BSTAR":0.00081443,"MEAN_MOTION_DOT":0.00079268,"MEAN_MOTION_DDOT":0},{"OBJECT_NAME":"STARLINK-4400","OBJECT_ID":"2022-099D","EPOCH":"2026-04-26T08:10:42.383712","MEAN_MOTION":15.05794104,"ECCENTRICITY":0.0001919,"INCLINATION":97.5748,"RA_OF_ASC_NODE":237.0905,"ARG_OF_PERICENTER":47.8441,"MEAN_ANOMALY":312.2949,"EPHEMERIS_TYPE":0,"CLASSIFICATION_TYPE":"U","NORAD_CAT_ID":53468,"ELEMENT_SET_NO":999,"REV_AT_EPOCH":20314,"BSTAR":0.0013814,"MEAN_MOTION_DOT":0.00020006,"MEAN_MOTION_DDOT":0},{"OBJECT_NAME":"STARLINK-4621","OBJECT_ID":"2022-105AE","EPOCH":"2026-04-26T09:50:34.754208","MEAN_MOTION":15.05643372,"ECCENTRICITY":0.0002518,"INCLINATION":97.5738,"RA_OF_ASC_NODE":357.1627,"ARG_OF_PERICENTER":72.0082,"MEAN_ANOMALY":288.1419,"EPHEMERIS_TYPE":0,"CLASSIFICATION_TYPE":"U","NORAD_CAT_ID":53676,"ELEMENT_SET_NO":999,"REV_AT_EPOCH":20041,"BSTAR":9.5443e-5,"MEAN_MOTION_DOT":1.317e-5,"MEAN_MOTION_DDOT":0},{"OBJECT_NAME":"SHERPA-LTC2","OBJECT_ID":"2022-107BG","EPOCH":"2026-04-26T06:52:45.073056","MEAN_MOTION":14.68977631,"ECCENTRICITY":0.0398631,"INCLINATION":53.2334,"RA_OF_ASC_NODE":79.9416,"ARG_OF_PERICENTER":81.1193,"MEAN_ANOMALY":283.4686,"EPHEMERIS_TYPE":0,"CLASSIFICATION_TYPE":"U","NORAD_CAT_ID":53754,"ELEMENT_SET_NO":999,"REV_AT_EPOCH":19491,"BSTAR":0.00036105,"MEAN_MOTION_DOT":7.149e-5,"MEAN_MOTION_DDOT":0},{"OBJECT_NAME":"CENTISPACE-1 S3","OBJECT_ID":"2022-108A","EPOCH":"2026-04-26T11:54:48.799296","MEAN_MOTION":14.61198558,"ECCENTRICITY":0.000901,"INCLINATION":53.5328,"RA_OF_ASC_NODE":268.995,"ARG_OF_PERICENTER":197.3463,"MEAN_ANOMALY":162.7205,"EPHEMERIS_TYPE":0,"CLASSIFICATION_TYPE":"U","NORAD_CAT_ID":53757,"ELEMENT_SET_NO":999,"REV_AT_EPOCH":19397,"BSTAR":0.00014379,"MEAN_MOTION_DOT":5.25e-6,"MEAN_MOTION_DDOT":0},{"OBJECT_NAME":"CENTISPACE-1 S4","OBJECT_ID":"2022-108B","EPOCH":"2026-04-26T12:06:33.563232","MEAN_MOTION":14.61865474,"ECCENTRICITY":0.0008937,"INCLINATION":53.5303,"RA_OF_ASC_NODE":266.7218,"ARG_OF_PERICENTER":183.8956,"MEAN_ANOMALY":176.1951,"EPHEMERIS_TYPE":0,"CLASSIFICATION_TYPE":"U","NORAD_CAT_ID":53758,"ELEMENT_SET_NO":999,"REV_AT_EPOCH":19400,"BSTAR":0.00018243,"MEAN_MOTION_DOT":7.29e-6,"MEAN_MOTION_DDOT":0},{"OBJECT_NAME":"BLUEWALKER-3","OBJECT_ID":"2022-111AL","EPOCH":"2026-04-26T10:49:59.543040","MEAN_MOTION":15.37660135,"ECCENTRICITY":0.0006661,"INCLINATION":53.229,"RA_OF_ASC_NODE":276.7356,"ARG_OF_PERICENTER":31.6489,"MEAN_ANOMALY":328.4916,"EPHEMERIS_TYPE":0,"CLASSIFICATION_TYPE":"U","NORAD_CAT_ID":53807,"ELEMENT_SET_NO":999,"REV_AT_EPOCH":20224,"BSTAR":0.00018468,"MEAN_MOTION_DOT":6.545e-5,"MEAN_MOTION_DDOT":0},{"OBJECT_NAME":"YUNHAI-1 03","OBJECT_ID":"2022-115A","EPOCH":"2026-04-26T12:10:13.503936","MEAN_MOTION":14.32681692,"ECCENTRICITY":0.0004452,"INCLINATION":98.5541,"RA_OF_ASC_NODE":115.3125,"ARG_OF_PERICENTER":184.4307,"MEAN_ANOMALY":175.6839,"EPHEMERIS_TYPE":0,"CLASSIFICATION_TYPE":"U","NORAD_CAT_ID":53877,"ELEMENT_SET_NO":999,"REV_AT_EPOCH":18811,"BSTAR":0.00014218,"MEAN_MOTION_DOT":3.43e-6,"MEAN_MOTION_DDOT":0},{"OBJECT_NAME":"CENTISPACE-1 S5","OBJECT_ID":"2022-126A","EPOCH":"2026-04-26T11:57:13.993632","MEAN_MOTION":14.6291374,"ECCENTRICITY":0.0010937,"INCLINATION":54.9997,"RA_OF_ASC_NODE":59.7858,"ARG_OF_PERICENTER":322.1156,"MEAN_ANOMALY":37.9067,"EPHEMERIS_TYPE":0,"CLASSIFICATION_TYPE":"U","NORAD_CAT_ID":54020,"ELEMENT_SET_NO":999,"REV_AT_EPOCH":18947,"BSTAR":0.00023887,"MEAN_MOTION_DOT":1.043e-5,"MEAN_MOTION_DDOT":0},{"OBJECT_NAME":"CENTISPACE-1 S6","OBJECT_ID":"2022-126B","EPOCH":"2026-04-26T11:11:03.384960","MEAN_MOTION":14.62209555,"ECCENTRICITY":0.0012779,"INCLINATION":54.9998,"RA_OF_ASC_NODE":61.5427,"ARG_OF_PERICENTER":321.3637,"MEAN_ANOMALY":38.6442,"EPHEMERIS_TYPE":0,"CLASSIFICATION_TYPE":"U","NORAD_CAT_ID":54021,"ELEMENT_SET_NO":999,"REV_AT_EPOCH":18943,"BSTAR":0.00017994,"MEAN_MOTION_DOT":7.26e-6,"MEAN_MOTION_DDOT":0},{"OBJECT_NAME":"OTB-3-GAZELLE","OBJECT_ID":"2022-127A","EPOCH":"2026-04-26T11:00:21.726720","MEAN_MOTION":14.42655182,"ECCENTRICITY":0.0012903,"INCLINATION":98.3937,"RA_OF_ASC_NODE":108.9551,"ARG_OF_PERICENTER":350.4725,"MEAN_ANOMALY":9.6218,"EPHEMERIS_TYPE":0,"CLASSIFICATION_TYPE":"U","NORAD_CAT_ID":54023,"ELEMENT_SET_NO":999,"REV_AT_EPOCH":18690,"BSTAR":6.4837e-5,"MEAN_MOTION_DOT":1.72e-6,"MEAN_MOTION_DDOT":0},{"OBJECT_NAME":"ASO-S","OBJECT_ID":"2022-129A","EPOCH":"2026-04-26T12:04:45.696288","MEAN_MOTION":14.52036694,"ECCENTRICITY":0.0013053,"INCLINATION":98.277,"RA_OF_ASC_NODE":122.3226,"ARG_OF_PERICENTER":249.6971,"MEAN_ANOMALY":110.2822,"EPHEMERIS_TYPE":0,"CLASSIFICATION_TYPE":"U","NORAD_CAT_ID":54029,"ELEMENT_SET_NO":999,"REV_AT_EPOCH":18792,"BSTAR":6.3689e-5,"MEAN_MOTION_DOT":2.13e-6,"MEAN_MOTION_DDOT":0},{"OBJECT_NAME":"HJ-2E","OBJECT_ID":"2022-132A","EPOCH":"2026-04-26T12:58:29.771040","MEAN_MOTION":15.21545823,"ECCENTRICITY":0.0020583,"INCLINATION":97.3817,"RA_OF_ASC_NODE":121.8777,"ARG_OF_PERICENTER":184.917,"MEAN_ANOMALY":175.1867,"EPHEMERIS_TYPE":0,"CLASSIFICATION_TYPE":"U","NORAD_CAT_ID":54035,"ELEMENT_SET_NO":999,"REV_AT_EPOCH":19656,"BSTAR":0.00039757,"MEAN_MOTION_DOT":8.942e-5,"MEAN_MOTION_DDOT":0},{"OBJECT_NAME":"COSMOS 2561","OBJECT_ID":"2022-137A","EPOCH":"2026-04-26T13:10:35.505984","MEAN_MOTION":15.50380342,"ECCENTRICITY":0.000909,"INCLINATION":96.9242,"RA_OF_ASC_NODE":177.5119,"ARG_OF_PERICENTER":205.8072,"MEAN_ANOMALY":154.2728,"EPHEMERIS_TYPE":0,"CLASSIFICATION_TYPE":"U","NORAD_CAT_ID":54109,"ELEMENT_SET_NO":999,"REV_AT_EPOCH":19834,"BSTAR":0.00026687,"MEAN_MOTION_DOT":0.00015101,"MEAN_MOTION_DDOT":0},{"OBJECT_NAME":"GONETS-M 23","OBJECT_ID":"2022-139A","EPOCH":"2026-04-26T12:04:42.318048","MEAN_MOTION":12.42888492,"ECCENTRICITY":0.0021418,"INCLINATION":82.5108,"RA_OF_ASC_NODE":20.4107,"ARG_OF_PERICENTER":337.3976,"MEAN_ANOMALY":22.6158,"EPHEMERIS_TYPE":0,"CLASSIFICATION_TYPE":"U","NORAD_CAT_ID":54150,"ELEMENT_SET_NO":999,"REV_AT_EPOCH":15922,"BSTAR":7.8768e-5,"MEAN_MOTION_DOT":2.1e-7,"MEAN_MOTION_DDOT":0},{"OBJECT_NAME":"GONETS-M 24","OBJECT_ID":"2022-139B","EPOCH":"2026-04-26T11:26:00.903840","MEAN_MOTION":12.42889002,"ECCENTRICITY":0.0016855,"INCLINATION":82.5025,"RA_OF_ASC_NODE":19.5228,"ARG_OF_PERICENTER":348.7557,"MEAN_ANOMALY":11.3143,"EPHEMERIS_TYPE":0,"CLASSIFICATION_TYPE":"U","NORAD_CAT_ID":54151,"ELEMENT_SET_NO":999,"REV_AT_EPOCH":15922,"BSTAR":2.3753e-5,"MEAN_MOTION_DOT":1.3e-7,"MEAN_MOTION_DDOT":0},{"OBJECT_NAME":"GONETS-M 25","OBJECT_ID":"2022-139C","EPOCH":"2026-04-26T11:06:21.070368","MEAN_MOTION":12.42888515,"ECCENTRICITY":0.0020733,"INCLINATION":82.509,"RA_OF_ASC_NODE":20.1896,"ARG_OF_PERICENTER":346.4927,"MEAN_ANOMALY":13.5595,"EPHEMERIS_TYPE":0,"CLASSIFICATION_TYPE":"U","NORAD_CAT_ID":54152,"ELEMENT_SET_NO":999,"REV_AT_EPOCH":15922,"BSTAR":3.9715e-5,"MEAN_MOTION_DOT":1.5e-7,"MEAN_MOTION_DDOT":0},{"OBJECT_NAME":"SKIF-D","OBJECT_ID":"2022-139D","EPOCH":"2026-04-25T07:04:01.363008","MEAN_MOTION":5.00437671,"ECCENTRICITY":0.00074065,"INCLINATION":89.9561,"RA_OF_ASC_NODE":96.6848,"ARG_OF_PERICENTER":221.1226,"MEAN_ANOMALY":138.8615,"EPHEMERIS_TYPE":0,"CLASSIFICATION_TYPE":"U","NORAD_CAT_ID":54153,"ELEMENT_SET_NO":999,"REV_AT_EPOCH":6146,"BSTAR":0,"MEAN_MOTION_DOT":4.4e-7,"MEAN_MOTION_DDOT":0},{"OBJECT_NAME":"MATS","OBJECT_ID":"2022-147A","EPOCH":"2026-04-26T11:04:40.434240","MEAN_MOTION":15.05025117,"ECCENTRICITY":0.0013254,"INCLINATION":97.6839,"RA_OF_ASC_NODE":118.2956,"ARG_OF_PERICENTER":24.5364,"MEAN_ANOMALY":335.649,"EPHEMERIS_TYPE":0,"CLASSIFICATION_TYPE":"U","NORAD_CAT_ID":54227,"ELEMENT_SET_NO":999,"REV_AT_EPOCH":18998,"BSTAR":0.00029163,"MEAN_MOTION_DOT":4.086e-5,"MEAN_MOTION_DDOT":0},{"OBJECT_NAME":"JILIN-1 GAOFEN 03D54","OBJECT_ID":"2022-155D","EPOCH":"2026-04-26T08:50:28.393152","MEAN_MOTION":15.78425225,"ECCENTRICITY":0.0004018,"INCLINATION":97.6064,"RA_OF_ASC_NODE":263.5441,"ARG_OF_PERICENTER":186.1309,"MEAN_ANOMALY":173.9908,"EPHEMERIS_TYPE":0,"CLASSIFICATION_TYPE":"U","NORAD_CAT_ID":54254,"ELEMENT_SET_NO":999,"REV_AT_EPOCH":19208,"BSTAR":0.00083145,"MEAN_MOTION_DOT":0.00145317,"MEAN_MOTION_DDOT":0},{"OBJECT_NAME":"EOS-6 (OCEANSAT-3)","OBJECT_ID":"2022-158A","EPOCH":"2026-04-26T12:12:24.126048","MEAN_MOTION":14.46979625,"ECCENTRICITY":0.0002309,"INCLINATION":98.3503,"RA_OF_ASC_NODE":215.3973,"ARG_OF_PERICENTER":107.1197,"MEAN_ANOMALY":253.0248,"EPHEMERIS_TYPE":0,"CLASSIFICATION_TYPE":"U","NORAD_CAT_ID":54361,"ELEMENT_SET_NO":999,"REV_AT_EPOCH":18036,"BSTAR":9.5435e-5,"MEAN_MOTION_DOT":3.03e-6,"MEAN_MOTION_DDOT":0}]
